[Satellite]
VERSION=1.1
NAME=YAMAL 202
NICKNAME=YAMAL 202
TLE1=1 28089U 03053A   17186.19387846  .00000115  00000-0  00000-0 0  9994
TLE2=2 28089   0.0591  94.5110 0003064 337.9514 329.6890  1.00273178 49907
